CCSDS_OMM_VERS = 2.0
CREATION_DATE  = 
ORIGINATOR     = 

OBJECT_NAME    = STARLINK-36974
OBJECT_ID      = 2026-055L
CENTER_NAME    = EARTH
REF_FRAME      = TEME
TIME_SYSTEM    = UTC
MEAN_ELEMENT_THEORY = SGP/SGP4

EPOCH          = 2026-03-30T12:00:01.999296
MEAN_MOTION    = 15.92395571
ECCENTRICITY   = .0000803
INCLINATION    = 53.1576
RA_OF_ASC_NODE = 233.0893
ARG_OF_PERICENTER = 75.8076
MEAN_ANOMALY   = 214.4376

EPHEMERIS_TYPE = 0
CLASSIFICATION_TYPE = U
NORAD_CAT_ID   = 68272
ELEMENT_SET_NO = 999
REV_AT_EPOCH   = 298
BSTAR          = -.42992E-2
MEAN_MOTION_DOT = -.1485919E-1
MEAN_MOTION_DDOT = .63138E-3

CCSDS_OMM_VERS = 2.0
CREATION_DATE  = 
ORIGINATOR     = 

OBJECT_NAME    = STARLINK-37019
OBJECT_ID      = 2026-055M
CENTER_NAME    = EARTH
REF_FRAME      = TEME
TIME_SYSTEM    = UTC
MEAN_ELEMENT_THEORY = SGP/SGP4

EPOCH          = 2026-03-30T12:00:01.999296
MEAN_MOTION    = 15.92489467
ECCENTRICITY   = .0000518
INCLINATION    = 53.1575
RA_OF_ASC_NODE = 233.0813
ARG_OF_PERICENTER = 71.9417
MEAN_ANOMALY   = 221.8272

EPHEMERIS_TYPE = 0
CLASSIFICATION_TYPE = U
NORAD_CAT_ID   = 68273
ELEMENT_SET_NO = 999
REV_AT_EPOCH   = 298
BSTAR          = -.43425E-2
MEAN_MOTION_DOT = -.1507926E-1
MEAN_MOTION_DDOT = .64919E-3

CCSDS_OMM_VERS = 2.0
CREATION_DATE  = 
ORIGINATOR     = 

OBJECT_NAME    = STARLINK-37129
OBJECT_ID      = 2026-055N
CENTER_NAME    = EARTH
REF_FRAME      = TEME
TIME_SYSTEM    = UTC
MEAN_ELEMENT_THEORY = SGP/SGP4

EPOCH          = 2026-03-30T12:00:01.999296
MEAN_MOTION    = 15.92537166
ECCENTRICITY   = .0000748
INCLINATION    = 53.1574
RA_OF_ASC_NODE = 233.0733
ARG_OF_PERICENTER = 76.5123
MEAN_ANOMALY   = 221.2673

EPHEMERIS_TYPE = 0
CLASSIFICATION_TYPE = U
NORAD_CAT_ID   = 68274
ELEMENT_SET_NO = 999
REV_AT_EPOCH   = 298
BSTAR          = -.43024E-2
MEAN_MOTION_DOT = -.1497873E-1
MEAN_MOTION_DDOT = .64159E-3

CCSDS_OMM_VERS = 2.0
CREATION_DATE  = 
ORIGINATOR     = 

OBJECT_NAME    = STARLINK-37123
OBJECT_ID      = 2026-055P
CENTER_NAME    = EARTH
REF_FRAME      = TEME
TIME_SYSTEM    = UTC
MEAN_ELEMENT_THEORY = SGP/SGP4

EPOCH          = 2026-03-30T12:00:01.999296
MEAN_MOTION    = 15.92619277
ECCENTRICITY   = .0000817
INCLINATION    = 53.1577
RA_OF_ASC_NODE = 233.0663
ARG_OF_PERICENTER = 74.6065
MEAN_ANOMALY   = 226.5893

EPHEMERIS_TYPE = 0
CLASSIFICATION_TYPE = U
NORAD_CAT_ID   = 68275
ELEMENT_SET_NO = 999
REV_AT_EPOCH   = 298
BSTAR          = -.42774E-2
MEAN_MOTION_DOT = -.1495623E-1
MEAN_MOTION_DDOT = .64034E-3

CCSDS_OMM_VERS = 2.0
CREATION_DATE  = 
ORIGINATOR     = 

OBJECT_NAME    = STARLINK-37125
OBJECT_ID      = 2026-055Q
CENTER_NAME    = EARTH
REF_FRAME      = TEME
TIME_SYSTEM    = UTC
MEAN_ELEMENT_THEORY = SGP/SGP4

EPOCH          = 2026-03-30T12:00:01.999296
MEAN_MOTION    = 15.92670225
ECCENTRICITY   = .0000663
INCLINATION    = 53.1574
RA_OF_ASC_NODE = 233.0569
ARG_OF_PERICENTER = 77.2187
MEAN_ANOMALY   = 228.6146

EPHEMERIS_TYPE = 0
CLASSIFICATION_TYPE = U
NORAD_CAT_ID   = 68276
ELEMENT_SET_NO = 999
REV_AT_EPOCH   = 298
BSTAR          = -.43089E-2
MEAN_MOTION_DOT = -.1510438E-1
MEAN_MOTION_DDOT = .65232E-3

CCSDS_OMM_VERS = 2.0
CREATION_DATE  = 
ORIGINATOR     = 

OBJECT_NAME    = STARLINK-36989
OBJECT_ID      = 2026-055R
CENTER_NAME    = EARTH
REF_FRAME      = TEME
TIME_SYSTEM    = UTC
MEAN_ELEMENT_THEORY = SGP/SGP4

EPOCH          = 2026-03-30T12:00:01.999296
MEAN_MOTION    = 15.92870359
ECCENTRICITY   = .0000709
INCLINATION    = 53.1572
RA_OF_ASC_NODE = 233.0318
ARG_OF_PERICENTER = 80.4400
MEAN_ANOMALY   = 237.5370

EPHEMERIS_TYPE = 0
CLASSIFICATION_TYPE = U
NORAD_CAT_ID   = 68277
ELEMENT_SET_NO = 999
REV_AT_EPOCH   = 298
BSTAR          = -.4313E-2
MEAN_MOTION_DOT = -.1527588E-1
MEAN_MOTION_DDOT = .66726E-3

CCSDS_OMM_VERS = 2.0
CREATION_DATE  = 
ORIGINATOR     = 

OBJECT_NAME    = STARLINK-36982
OBJECT_ID      = 2026-055S
CENTER_NAME    = EARTH
REF_FRAME      = TEME
TIME_SYSTEM    = UTC
MEAN_ELEMENT_THEORY = SGP/SGP4

EPOCH          = 2026-03-30T12:00:01.999296
MEAN_MOTION    = 15.92797509
ECCENTRICITY   = .0000734
INCLINATION    = 53.1573
RA_OF_ASC_NODE = 233.0402
ARG_OF_PERICENTER = 77.8325
MEAN_ANOMALY   = 236.3369

EPHEMERIS_TYPE = 0
CLASSIFICATION_TYPE = U
NORAD_CAT_ID   = 68278
ELEMENT_SET_NO = 999
REV_AT_EPOCH   = 298
BSTAR          = -.43258E-2
MEAN_MOTION_DOT = -.1526296E-1
MEAN_MOTION_DDOT = .66575E-3

CCSDS_OMM_VERS = 2.0
CREATION_DATE  = 
ORIGINATOR     = 

OBJECT_NAME    = STARLINK-36934
OBJECT_ID      = 2026-055T
CENTER_NAME    = EARTH
REF_FRAME      = TEME
TIME_SYSTEM    = UTC
MEAN_ELEMENT_THEORY = SGP/SGP4

EPOCH          = 2026-03-30T12:00:01.999296
MEAN_MOTION    = 15.92720792
ECCENTRICITY   = .0000694
INCLINATION    = 53.1573
RA_OF_ASC_NODE = 233.0480
ARG_OF_PERICENTER = 78.0269
MEAN_ANOMALY   = 232.3044

EPHEMERIS_TYPE = 0
CLASSIFICATION_TYPE = U
NORAD_CAT_ID   = 68279
ELEMENT_SET_NO = 999
REV_AT_EPOCH   = 298
BSTAR          = -.43187E-2
MEAN_MOTION_DOT = -.1517783E-1
MEAN_MOTION_DDOT = .65847E-3

CCSDS_OMM_VERS = 2.0
CREATION_DATE  = 
ORIGINATOR     = 

OBJECT_NAME    = STARLINK-37070
OBJECT_ID      = 2026-055U
CENTER_NAME    = EARTH
REF_FRAME      = TEME
TIME_SYSTEM    = UTC
MEAN_ELEMENT_THEORY = SGP/SGP4

EPOCH          = 2026-03-30T12:00:01.999296
MEAN_MOTION    = 15.92933771
ECCENTRICITY   = .000081
INCLINATION    = 53.1574
RA_OF_ASC_NODE = 233.0223
ARG_OF_PERICENTER = 77.1448
MEAN_ANOMALY   = 245.3316

EPHEMERIS_TYPE = 0
CLASSIFICATION_TYPE = U
NORAD_CAT_ID   = 68280
ELEMENT_SET_NO = 999
REV_AT_EPOCH   = 298
BSTAR          = -.43451E-2
MEAN_MOTION_DOT = -.1543877E-1
MEAN_MOTION_DDOT = .68077E-3

CCSDS_OMM_VERS = 2.0
CREATION_DATE  = 
ORIGINATOR     = 

OBJECT_NAME    = STARLINK-37134
OBJECT_ID      = 2026-055V
CENTER_NAME    = EARTH
REF_FRAME      = TEME
TIME_SYSTEM    = UTC
MEAN_ELEMENT_THEORY = SGP/SGP4

EPOCH          = 2026-03-30T12:00:01.999296
MEAN_MOTION    = 15.93070678
ECCENTRICITY   = .0000571
INCLINATION    = 53.1569
RA_OF_ASC_NODE = 233.0053
ARG_OF_PERICENTER = 75.2706
MEAN_ANOMALY   = 255.4139

EPHEMERIS_TYPE = 0
CLASSIFICATION_TYPE = U
NORAD_CAT_ID   = 68281
ELEMENT_SET_NO = 999
REV_AT_EPOCH   = 298
BSTAR          = -.43053E-2
MEAN_MOTION_DOT = -.1540792E-1
MEAN_MOTION_DDOT = .6792E-3

CCSDS_OMM_VERS = 2.0
CREATION_DATE  = 
ORIGINATOR     = 

OBJECT_NAME    = STARLINK-37160
OBJECT_ID      = 2026-055W
CENTER_NAME    = EARTH
REF_FRAME      = TEME
TIME_SYSTEM    = UTC
MEAN_ELEMENT_THEORY = SGP/SGP4

EPOCH          = 2026-03-30T12:00:01.999296
MEAN_MOTION    = 15.92998242
ECCENTRICITY   = .0000815
INCLINATION    = 53.1572
RA_OF_ASC_NODE = 233.0143
ARG_OF_PERICENTER = 74.5524
MEAN_ANOMALY   = 252.1876

EPHEMERIS_TYPE = 0
CLASSIFICATION_TYPE = U
NORAD_CAT_ID   = 68282
ELEMENT_SET_NO = 999
REV_AT_EPOCH   = 298
BSTAR          = -.43335E-2
MEAN_MOTION_DOT = -.1544955E-1
MEAN_MOTION_DDOT = .68207E-3

CCSDS_OMM_VERS = 2.0
CREATION_DATE  = 
ORIGINATOR     = 

OBJECT_NAME    = STARLINK-37124
OBJECT_ID      = 2026-055X
CENTER_NAME    = EARTH
REF_FRAME      = TEME
TIME_SYSTEM    = UTC
MEAN_ELEMENT_THEORY = SGP/SGP4

EPOCH          = 2026-03-30T12:00:01.999296
MEAN_MOTION    = 15.93164742
ECCENTRICITY   = .0000647
INCLINATION    = 53.1571
RA_OF_ASC_NODE = 232.9985
ARG_OF_PERICENTER = 67.0642
MEAN_ANOMALY   = 267.1428

EPHEMERIS_TYPE = 0
CLASSIFICATION_TYPE = U
NORAD_CAT_ID   = 68283
ELEMENT_SET_NO = 999
REV_AT_EPOCH   = 298
BSTAR          = -.43201E-2
MEAN_MOTION_DOT = -.1553585E-1
MEAN_MOTION_DDOT = .69021E-3

CCSDS_OMM_VERS = 2.0
CREATION_DATE  = 
ORIGINATOR     = 

OBJECT_NAME    = STARLINK-37159
OBJECT_ID      = 2026-055Y
CENTER_NAME    = EARTH
REF_FRAME      = TEME
TIME_SYSTEM    = UTC
MEAN_ELEMENT_THEORY = SGP/SGP4

EPOCH          = 2026-03-30T12:00:01.999296
MEAN_MOTION    = 15.93242829
ECCENTRICITY   = .000064
INCLINATION    = 53.1572
RA_OF_ASC_NODE = 232.9897
ARG_OF_PERICENTER = 75.4799
MEAN_ANOMALY   = 262.9004

EPHEMERIS_TYPE = 0
CLASSIFICATION_TYPE = U
NORAD_CAT_ID   = 68284
ELEMENT_SET_NO = 999
REV_AT_EPOCH   = 298
BSTAR          = -.43302E-2
MEAN_MOTION_DOT = -.15635E-1
MEAN_MOTION_DDOT = .69884E-3

CCSDS_OMM_VERS = 2.0
CREATION_DATE  = 
ORIGINATOR     = 

OBJECT_NAME    = STARLINK-36725
OBJECT_ID      = 2026-055Z
CENTER_NAME    = EARTH
REF_FRAME      = TEME
TIME_SYSTEM    = UTC
MEAN_ELEMENT_THEORY = SGP/SGP4

EPOCH          = 2026-03-30T12:00:01.999296
MEAN_MOTION    = 15.93333339
ECCENTRICITY   = .0000765
INCLINATION    = 53.1567
RA_OF_ASC_NODE = 232.9818
ARG_OF_PERICENTER = 70.5797
MEAN_ANOMALY   = 271.2842

EPHEMERIS_TYPE = 0
CLASSIFICATION_TYPE = U
NORAD_CAT_ID   = 68285
ELEMENT_SET_NO = 999
REV_AT_EPOCH   = 298
BSTAR          = -.43041E-2
MEAN_MOTION_DOT = -.1561525E-1
MEAN_MOTION_DDOT = .69785E-3

CCSDS_OMM_VERS = 2.0
CREATION_DATE  = 
ORIGINATOR     = 

OBJECT_NAME    = STARLINK-36998
OBJECT_ID      = 2026-055AA
CENTER_NAME    = EARTH
REF_FRAME      = TEME
TIME_SYSTEM    = UTC
MEAN_ELEMENT_THEORY = SGP/SGP4

EPOCH          = 2026-03-30T12:00:01.999296
MEAN_MOTION    = 15.93491502
ECCENTRICITY   = .0000712
INCLINATION    = 53.1575
RA_OF_ASC_NODE = 232.9661
ARG_OF_PERICENTER = 77.4930
MEAN_ANOMALY   = 272.7317

EPHEMERIS_TYPE = 0
CLASSIFICATION_TYPE = U
NORAD_CAT_ID   = 68286
ELEMENT_SET_NO = 999
REV_AT_EPOCH   = 298
BSTAR          = -.42576E-2
MEAN_MOTION_DOT = -.1557638E-1
MEAN_MOTION_DDOT = .69576E-3

